[{"OBJECT_NAME":"OBJECT D","OBJECT_ID":"2024-174D","EPOCH":"2026-03-10T00:15:10.483200","MEAN_MOTION":15.28039787,"ECCENTRICITY":0.00110644,"INCLINATION":97.4441,"RA_OF_ASC_NODE":80.4677,"ARG_OF_PERICENTER":212.9968,"MEAN_ANOMALY":147.0582,"EPHEMERIS_TYPE":0,"CLASSIFICATION_TYPE":"U","NORAD_CAT_ID":61241,"ELEMENT_SET_NO":999,"REV_AT_EPOCH":8076,"BSTAR":0.00036340099,"MEAN_MOTION_DOT":9.884e-5,"MEAN_MOTION_DDOT":0},{"OBJECT_NAME":"STARLINK-32455","OBJECT_ID":"2024-191M","EPOCH":"2026-03-09T22:55:41.548800","MEAN_MOTION":15.27577029,"ECCENTRICITY":0.00012966,"INCLINATION":43.0034,"RA_OF_ASC_NODE":156.7658,"ARG_OF_PERICENTER":266.1297,"MEAN_ANOMALY":93.9406,"EPHEMERIS_TYPE":0,"CLASSIFICATION_TYPE":"U","NORAD_CAT_ID":61632,"ELEMENT_SET_NO":999,"REV_AT_EPOCH":7753,"BSTAR":-2.23598e-7,"MEAN_MOTION_DOT":-2.68e-6,"MEAN_MOTION_DDOT":0}]
